{
  "norad_id": 57814,
  "name": "STARLINK-30413",
  "history": [
    {
      "epoch": "2026-03-28T18:55:40.077120",
      "apogee_km": 483.9890968922273,
      "perigee_km": 482.097057874088,
      "latitude_deg": 42.964710209562654,
      "longitude_deg": 37.111196799902245,
      "semi_major_axis_km": 6861.180077383157,
      "eccentricity": 0.00013788,
      "inclination_deg": 43.0003,
      "raan_deg": 126.8007,
      "arg_perigee_deg": 270.3789,
      "mean_anomaly_deg": 89.6904,
      "mean_motion_rev_day": 15.2758201
    },
    {
      "epoch": "2026-03-29T02:46:26.993280",
      "apogee_km": 484.0056829793766,
      "perigee_km": 482.08043585470386,
      "latitude_deg": 22.812109948000014,
      "longitude_deg": 68.49665919994004,
      "semi_major_axis_km": 6861.18005941704,
      "eccentricity": 0.0001403,
      "inclination_deg": 42.9998,
      "raan_deg": 124.9547,
      "arg_perigee_deg": 273.2161,
      "mean_anomaly_deg": 86.853,
      "mean_motion_rev_day": 15.27582016
    }
  ]
}